$$SOE
2460147.500000000, A.D. 2023-Jul-22 00:00:00.0000, 1.641369933736581E+08, -2.962541977248937E+08, 2.597520109898500E+07,
2460154.500000000, A.D. 2023-Jul-29 00:00:00.0000, 1.749495988932738E+08, -2.903593210140544E+08, 2.641516140297636E+07,
2460161.500000000, A.D. 2023-Aug-05 00:00:00.0000, 1.855461581841395E+08, -2.841058933606170E+08, 2.682250393224952E+07,
2460168.500000000, A.D. 2023-Aug-12 00:00:00.0000, 1.959143244621049E+08, -2.775027672429259E+08, 2.719683254945163E+07,
2460175.500000000, A.D. 2023-Aug-19 00:00:00.0000, 2.060421661494984E+08, -2.705592462037048E+08, 2.753780184341712E+07,
2460182.500000000, A.D. 2023-Aug-26 00:00:00.0000, 2.159181844917888E+08, -2.632850611858617E+08, 2.784511715053566E+07,
2460189.500000000, A.D. 2023-Sep-02 00:00:00.0000, 2.255313295778062E+08, -2.556903462219274E+08, 2.811853442614540E+07,
2460196.500000000, A.D. 2023-Sep-09 00:00:00.0000, 2.348710147803791E+08, -2.477856136516341E+08, 2.835785996650228E+07,
2460203.500000000, A.D. 2023-Sep-16 00:00:00.0000, 2.439271297717609E+08, -2.395817290539519E+08, 2.856294996780026E+07,
2460210.500000000, A.D. 2023-Sep-23 00:00:00.0000, 2.526900525270359E+08, -2.310898857297695E+08, 2.873370991423746E+07,
2460217.500000000, A.D. 2023-Sep-30 00:00:00.0000, 2.611506599836736E+08, -2.223215776652868E+08, 2.887009393100273E+07,
2460224.500000000, A.D. 2023-Oct-07 00:00:00.0000, 2.693003350182692E+08, -2.132885716353039E+08, 2.897210428062699E+07,
2460231.500000000, A.D. 2023-Oct-14 00:00:00.0000, 2.771309708018552E+08, -2.040028818666125E+08, 2.903979064241767E+07,
2460238.500000000, A.D. 2023-Oct-21 00:00:00.0000, 2.846349757951005E+08, -1.944767457589428E+08, 2.907324901628649E+07,
2460245.500000000, A.D. 2023-Oct-28 00:00:00.0000, 2.918052780026196E+08, -1.847225985013590E+08, 2.907262057429735E+07,
2460252.500000000, A.D. 2023-Nov-04 00:00:00.0000, 2.986353272863805E+08, -1.747530474484425E+08, 2.903809052009079E+07,
2460259.500000000, A.D. 2023-Nov-11 00:00:00.0000, 3.051190959708412E+08, -1.645808469434755E+08, 2.896988689926860E+07,
2460266.500000000, A.D. 2023-Nov-18 00:00:00.0000, 3.112510780194186E+08, -1.542188737332752E+08, 2.886827934371790E+07,
2460273.500000000, A.D. 2023-Nov-25 00:00:00.0000, 3.170262869198388E+08, -1.436801030256104E+08, 2.873357775341004E+07,
2460280.500000000, A.D. 2023-Dec-02 00:00:00.0000, 3.224402523749415E+08, -1.329775852673025E+08, 2.856613092043157E+07,
2460287.500000000, A.D. 2023-Dec-09 00:00:00.0000, 3.274890159468719E+08, -1.221244237621145E+08, 2.836632509101393E+07,
2460294.500000000, A.D. 2023-Dec-16 00:00:00.0000, 3.321691260122156E+08, -1.111337531674189E+08, 2.813458244695386E+07,
2460301.500000000, A.D. 2023-Dec-23 00:00:00.0000, 3.364776324494250E+08, -1.000187182235933E+08, 2.787135953740365E+07,
2460308.500000000, A.D. 2023-Dec-30 00:00:00.0000, 3.404120797983565E+08, -8.879245170357938E+07, 2.757714587793163E+07,
2460315.500000000, A.D. 2024-Jan-06 00:00:00.0000, 3.439704971989196E+08, -7.746805397884782E+07, 2.725246269410749E+07,
2460322.500000000, A.D. 2024-Jan-13 00:00:00.0000, 3.471513883531161E+08, -6.605857603527031E+07, 2.689786137608202E+07,
2460329.500000000, A.D. 2024-Jan-20 00:00:00.0000, 3.499537228049936E+08, -5.457700287042652E+07, 2.651392178891803E+07,
2460336.500000000, A.D. 2024-Jan-27 00:00:00.0000, 3.523769265833806E+08, -4.303623663143516E+07, 2.610125068359380E+07,
2460343.500000000, A.D. 2024-Feb-03 00:00:00.0000, 3.544208718513337E+08, -3.144908044910416E+07, 2.566048017569127E+07,
2460350.500000000, A.D. 2024-Feb-10 00:00:00.0000, 3.560858659091008E+08, -1.982822326158587E+07, 2.519226624721701E+07,
2460357.500000000, A.D. 2024-Feb-17 00:00:00.0000, 3.573726397560520E+08, -8.186225616637249E+06, 2.469728726373467E+07,
2460364.500000000, A.D. 2024-Feb-24 00:00:00.0000, 3.582823363117235E+08, 3.464493569885625E+06, 2.417624250864127E+07,
2460371.500000000, A.D. 2024-Mar-02 00:00:00.0000, 3.588164983871336E+08, 1.511166927833295E+07, 2.362985073288542E+07,
2460378.500000000, A.D. 2024-Mar-09 00:00:00.0000, 3.589770566041555E+08, 2.674320162388705E+07, 2.305884870547238E+07,
2460385.500000000, A.D. 2024-Mar-16 00:00:00.0000, 3.587663177117206E+08, 3.834716628337445E+07, 2.246398974688750E+07,
2460392.500000000, A.D. 2024-Mar-23 00:00:00.0000, 3.581869532423321E+08, 4.991182524165665E+07, 2.184604234731647E+07,
2460399.500000000, A.D. 2024-Mar-30 00:00:00.0000, 3.572419863180466E+08, 6.142563785937712E+07, 2.120578907623990E+07,
2460406.500000000, A.D. 2024-Apr-06 00:00:00.0000, 3.559347769150139E+08, 7.287726891950727E+07, 2.054402548781532E+07,
2460413.500000000, A.D. 2024-Apr-13 00:00:00.0000, 3.542690091794416E+08, 8.425559451259783E+07, 1.986155876554391E+07,
2460420.500000000, A.D. 2024-Apr-20 00:00:00.0000, 3.522486798783545E+08, 9.554970846523719E+07, 1.915920641289450E+07,
2460427.500000000, A.D. 2024-Apr-27 00:00:00.0000, 3.498780865025147E+08, 1.067489287786622E+08, 1.843779508380070E+07,
2460434.500000000, A.D. 2024-May-04 00:00:00.0000, 3.471618151385408E+08, 1.178428034017903E+08, 1.769815948732925E+07,
2460441.500000000, A.D. 2024-May-11 00:00:00.0000, 3.441047283712263E+08, 1.288211152666618E+08, 1.694114133565475E+07,
2460448.500000000, A.D. 2024-May-18 00:00:00.0000, 3.407119533176208E+08, 1.396738866421880E+08, 1.616758832932352E+07,
2460455.500000000, A.D. 2024-May-25 00:00:00.0000, 3.369888698387091E+08, 1.503913828369202E+08, 1.537835317772648E+07,
2460462.500000000, A.D. 2024-Jun-01 00:00:00.0000, 3.329410990126206E+08, 1.609641152310165E+08, 1.457429264601564E+07,
2460469.500000000, A.D. 2024-Jun-08 00:00:00.0000, 3.285744921402125E+08, 1.713828436483528E+08, 1.375626660502248E+07,
2460476.500000000, A.D. 2024-Jun-15 00:00:00.0000, 3.238951207021978E+08, 1.816385786422032E+08, 1.292513709177662E+07,
2460483.500000000, A.D. 2024-Jun-22 00:00:00.0000, 3.189092662715919E+08, 1.917225848957275E+08, 1.208176756755140E+07,
2460490.500000000, A.D. 2024-Jun-29 00:00:00.0000, 3.136234082664063E+08, 2.016263839491828E+08, 1.122702241889229E+07,
2460497.500000000, A.D. 2024-Jul-06 00:00:00.0000, 3.080442122007375E+08, 2.113417538147917E+08, 1.036176625666414E+07,
2460504.500000000, A.D. 2024-Jul-13 00:00:00.0000, 3.021785203894487E+08, 2.208607283284377E+08, 9.486863063322335E+06,
2460511.500000000, A.D. 2024-Jul-20 00:00:00.0000, 2.960333431206780E+08, 2.301755974133898E+08, 8.603175462942049E+06,
2460518.500000000, A.D. 2024-Jul-27 00:00:00.0000, 2.896158496411526E+08, 2.392789073244407E+08, 7.711564094658092E+06,
2460525.500000000, A.D. 2024-Aug-03 00:00:00.0000, 2.829333592281251E+08, 2.481634605241623E+08, 6.812887032591403E+06,
2460532.500000000, A.D. 2024-Aug-10 00:00:00.0000, 2.759933325132436E+08, 2.568223152121401E+08, 5.907999235264182E+06,
2460539.500000000, A.D. 2024-Aug-17 00:00:00.0000, 2.688033631038043E+08, 2.652487845531185E+08, 4.997752020403817E+06,
2460546.500000000, A.D. 2024-Aug-24 00:00:00.0000, 2.613711695260618E+08, 2.734364356050648E+08, 4.082992559171960E+06,
2460553.500000000, A.D. 2024-Aug-31 00:00:00.0000, 2.537045876020716E+08, 2.813790879082810E+08, 3.164563372597128E+06,
2460560.500000000, A.D. 2024-Sep-07 00:00:00.0000, 2.458115636213583E+08, 2.890708118841037E+08, 2.243301805369571E+06,
2460567.500000000, A.D. 2024-Sep-14 00:00:00.0000, 2.377001483886710E+08, 2.965059280584659E+08, 1.320039548612744E+06,
2460574.500000000, A.D. 2024-Sep-21 00:00:00.0000, 2.293784901099786E+08, 3.036790075372051E+08, 3.956024295588136E+05,
2460581.500000000, A.D. 2024-Sep-28 00:00:00.0000, 2.208548256169705E+08, 3.105848705249923E+08, -5.291897517631203E+05,
2460588.500000000, A.D. 2024-Oct-05 00:00:00.0000, 2.121374735959546E+08, 3.172185829125893E+08, -1.453523676621303E+06,
2460595.500000000, A.D. 2024-Oct-12 00:00:00.0000, 2.032348294551671E+08, 3.235754539269204E+08, -2.376592977841124E+06,
2460602.500000000, A.D. 2024-Oct-19 00:00:00.0000, 1.941553600691664E+08, 3.296510345862577E+08, -3.297598589188591E+06,
2460609.500000000, A.D. 2024-Oct-26 00:00:00.0000, 1.849075983582863E+08, 3.354411161739135E+08, -4.215749037616357E+06,
2460616.500000000, A.D. 2024-Nov-02 00:00:00.0000, 1.755001379518458E+08, 3.409417285962842E+08, -5.130260715368837E+06,
2460623.500000000, A.D. 2024-Nov-09 00:00:00.0000, 1.659416280232785E+08, 3.461491386588610E+08, -6.040358140384182E+06,
2460630.500000000, A.D. 2024-Nov-16 00:00:00.0000, 1.562407683145541E+08, 3.510598482718834E+08, -6.945274208553687E+06,
2460637.500000000, A.D. 2024-Nov-23 00:00:00.0000, 1.464063043878689E+08, 3.556705925455504E+08, -7.844250447303668E+06,
2460644.500000000, A.D. 2024-Nov-30 00:00:00.0000, 1.364470233030889E+08, 3.599783377408167E+08, -8.736537294008091E+06,
2460651.500000000, A.D. 2024-Dec-07 00:00:00.0000, 1.263717501299821E+08, 3.639802795052726E+08, -9.621394404188693E+06,
2460658.500000000, A.D. 2024-Dec-14 00:00:00.0000, 1.161893445971831E+08, 3.676738426264110E+08, -1.049809082738501E+07,
2460665.500000000, A.D. 2024-Dec-21 00:00:00.0000, 1.059086955477086E+08, 3.710566810648806E+08, -1.136590494001578E+07,
2460672.500000000, A.D. 2024-Dec-28 00:00:00.0000, 9.553871515736137E+07, 3.741266753086431E+08, -1.222412455855347E+07,
2460679.500000000, A.D. 2025-Jan-04 00:00:00.0000, 8.508833550486599E+07, 3.768819294406261E+08, -1.307204727833000E+07,
2460686.500000000, A.D. 2025-Jan-11 00:00:00.0000, 7.456650566856898E+07, 3.793207695880473E+08, -1.390898073687352E+07,
2460693.500000000, A.D. 2025-Jan-18 00:00:00.0000, 6.398218842631649E+07, 3.814417428370299E+08, -1.473424279356582E+07,
2460700.500000000, A.D. 2025-Jan-25 00:00:00.0000, 5.334435679412568E+07, 3.832436161383026E+08, -1.554716168711311E+07,
2460707.500000000, A.D. 2025-Feb-01 00:00:00.0000, 4.266199058282806E+07, 3.847253751727552E+08, -1.634707619060126E+07,
2460714.500000000, A.D. 2025-Feb-08 00:00:00.0000, 3.194407301806710E+07, 3.858862231971080E+08, -1.713333576760991E+07,
$$EOE